{
  "type": "FeatureCollection",
  "features": [
    {
      "type": "Feature",
      "properties": {
        "norad_id": 41330,
        "name": "COSMOS 2514 (751)",
        "group": "glo-ops",
        "lat": -65.12084379105643,
        "lon": -129.43824291215572,
        "alt_km": 19117.417297828917,
        "timestamp": "2025-12-21T18:54:58.757754+00:00",
        "meta_object_name": "COSMOS 2514 (751)",
        "meta_object_id": "2016-008A",
        "meta_epoch": "2025-12-20T23:11:21.347520",
        "meta_mean_motion": 2.13102678,
        "meta_eccentricity": 0.00117473,
        "meta_inclination": 65.1291,
        "meta_ra_of_asc_node": 319.1224,
        "meta_arg_of_pericenter": 220.1373,
        "meta_mean_anomaly": 139.7688,
        "meta_ephemeris_type": 0,
        "meta_classification_type": "U",
        "meta_norad_cat_id": 41330,
        "meta_element_set_no": 999,
        "meta_rev_at_epoch": 7682,
        "meta_bstar": 0,
        "meta_mean_motion_dot": -4.9e-07,
        "meta_mean_motion_ddot": 0,
        "tle_line1": "1 41330U 16008A   25354.96621930 -.00000049  00000+0  00000+0 0  9993",
        "tle_line2": "2 41330  65.1291 319.1224 0011747 220.1373 139.7688  2.13102678 76822"
      },
      "geometry": {
        "type": "Point",
        "coordinates": [
          -129.43824291215572,
          -65.12084379105643
        ]
      }
    },
    {
      "type": "Feature",
      "properties": {
        "norad_id": 42939,
        "name": "COSMOS 2522 (752)",
        "group": "glo-ops",
        "lat": 30.6674322697804,
        "lon": -145.30062652719158,
        "alt_km": 19142.272164741513,
        "timestamp": "2025-12-21T18:54:58.757765+00:00",
        "meta_object_name": "COSMOS 2522 (752)",
        "meta_object_id": "2017-055A",
        "meta_epoch": "2025-12-20T19:18:35.639424",
        "meta_mean_motion": 2.13102071,
        "meta_eccentricity": 0.00063061,
        "meta_inclination": 64.0764,
        "meta_ra_of_asc_node": 197.9542,
        "meta_arg_of_pericenter": 223.7674,
        "meta_mean_anomaly": 136.256,
        "meta_ephemeris_type": 0,
        "meta_classification_type": "U",
        "meta_norad_cat_id": 42939,
        "meta_element_set_no": 999,
        "meta_rev_at_epoch": 6417,
        "meta_bstar": 0,
        "meta_mean_motion_dot": 9.9e-07,
        "meta_mean_motion_ddot": 0,
        "tle_line1": "1 42939U 17055A   25354.80457916  .00000099  00000+0  00000+0 0  9990",
        "tle_line2": "2 42939  64.0764 197.9542 0006306 223.7674 136.2560  2.13102071 64177"
      },
      "geometry": {
        "type": "Point",
        "coordinates": [
          -145.30062652719158,
          30.6674322697804
        ]
      }
    },
    {
      "type": "Feature",
      "properties": {
        "norad_id": 43508,
        "name": "COSMOS 2527 (756)",
        "group": "glo-ops",
        "lat": 55.24326006553749,
        "lon": 120.89228589084628,
        "alt_km": 19145.30679787346,
        "timestamp": "2025-12-21T18:54:58.757776+00:00",
        "meta_object_name": "COSMOS 2527 (756)",
        "meta_object_id": "2018-053A",
        "meta_epoch": "2025-12-20T18:22:11.791200",
        "meta_mean_motion": 2.13102375,
        "meta_eccentricity": 0.00088721,
        "meta_inclination": 65.4768,
        "meta_ra_of_asc_node": 79.8631,
        "meta_arg_of_pericenter": 227.1028,
        "meta_mean_anomaly": 132.8569,
        "meta_ephemeris_type": 0,
        "meta_classification_type": "U",
        "meta_norad_cat_id": 43508,
        "meta_element_set_no": 999,
        "meta_rev_at_epoch": 5847,
        "meta_bstar": 0,
        "meta_mean_motion_dot": -1.4e-07,
        "meta_mean_motion_ddot": 0,
        "tle_line1": "1 43508U 18053A   25354.76541425 -.00000014  00000+0  00000+0 0  9994",
        "tle_line2": "2 43508  65.4768  79.8631 0008872 227.1028 132.8569  2.13102375 58471"
      },
      "geometry": {
        "type": "Point",
        "coordinates": [
          120.89228589084628,
          55.24326006553749
        ]
      }
    },
    {
      "type": "Feature",
      "properties": {
        "norad_id": 43687,
        "name": "COSMOS 2529 (757)",
        "group": "glo-ops",
        "lat": -9.06143437450508,
        "lon": -165.82123259662478,
        "alt_km": 19133.529972680066,
        "timestamp": "2025-12-21T18:54:58.757786+00:00",
        "meta_object_name": "COSMOS 2529 (757)",
        "meta_object_id": "2018-086A",
        "meta_epoch": "2025-12-21T07:58:09.386112",
        "meta_mean_motion": 2.13102154,
        "meta_eccentricity": 0.00069464,
        "meta_inclination": 64.2925,
        "meta_ra_of_asc_node": 198.598,
        "meta_arg_of_pericenter": 253.6032,
        "meta_mean_anomaly": 106.3925,
        "meta_ephemeris_type": 0,
        "meta_classification_type": "U",
        "meta_norad_cat_id": 43687,
        "meta_element_set_no": 999,
        "meta_rev_at_epoch": 5549,
        "meta_bstar": 0,
        "meta_mean_motion_dot": 9.7e-07,
        "meta_mean_motion_ddot": 0,
        "tle_line1": "1 43687U 18086A   25355.33205308  .00000097  00000+0  00000+0 0  9999",
        "tle_line2": "2 43687  64.2925 198.5980 0006946 253.6032 106.3925  2.13102154 55492"
      },
      "geometry": {
        "type": "Point",
        "coordinates": [
          -165.82123259662478,
          -9.06143437450508
        ]
      }
    },
    {
      "type": "Feature",
      "properties": {
        "norad_id": 44299,
        "name": "COSMOS 2534 (758)",
        "group": "glo-ops",
        "lat": 48.134541777748666,
        "lon": -13.825490090245248,
        "alt_km": 19145.237521502368,
        "timestamp": "2025-12-21T18:54:58.757797+00:00",
        "meta_object_name": "COSMOS 2534 (758)",
        "meta_object_id": "2019-030A",
        "meta_epoch": "2025-12-21T10:55:51.060576",
        "meta_mean_motion": 2.13102432,
        "meta_eccentricity": 0.00087289,
        "meta_inclination": 64.366,
        "meta_ra_of_asc_node": 198.5992,
        "meta_arg_of_pericenter": 284.1192,
        "meta_mean_anomaly": 304.9695,
        "meta_ephemeris_type": 0,
        "meta_classification_type": "U",
        "meta_norad_cat_id": 44299,
        "meta_element_set_no": 999,
        "meta_rev_at_epoch": 5113,
        "meta_bstar": 0,
        "meta_mean_motion_dot": 9.7e-07,
        "meta_mean_motion_ddot": 0,
        "tle_line1": "1 44299U 19030A   25355.45545209  .00000097  00000+0  00000+0 0  9999",
        "tle_line2": "2 44299  64.3660 198.5992 0008728 284.1192 304.9695  2.13102432 51134"
      },
      "geometry": {
        "type": "Point",
        "coordinates": [
          -13.825490090245248,
          48.134541777748666
        ]
      }
    },
    {
      "type": "Feature",
      "properties": {
        "norad_id": 44850,
        "name": "COSMOS 2544 (759)",
        "group": "glo-ops",
        "lat": 60.505711934424866,
        "lon": -154.04718514367167,
        "alt_km": 19152.2440570038,
        "timestamp": "2025-12-21T18:54:58.757808+00:00",
        "meta_object_name": "COSMOS 2544 (759)",
        "meta_object_id": "2019-088A",
        "meta_epoch": "2025-12-21T04:18:06.689376",
        "meta_mean_motion": 2.13102125,
        "meta_eccentricity": 0.00141884,
        "meta_inclination": 65.4644,
        "meta_ra_of_asc_node": 79.6762,
        "meta_arg_of_pericenter": 250.1842,
        "meta_mean_anomaly": 109.6995,
        "meta_ephemeris_type": 0,
        "meta_classification_type": "U",
        "meta_norad_cat_id": 44850,
        "meta_element_set_no": 999,
        "meta_rev_at_epoch": 4692,
        "meta_bstar": 0,
        "meta_mean_motion_dot": -1e-07,
        "meta_mean_motion_ddot": 0,
        "tle_line1": "1 44850U 19088A   25355.17924409 -.00000010  00000+0  00000+0 0  9993",
        "tle_line2": "2 44850  65.4644  79.6762 0014188 250.1842 109.6995  2.13102125 46920"
      },
      "geometry": {
        "type": "Point",
        "coordinates": [
          -154.04718514367167,
          60.505711934424866
        ]
      }
    },
    {
      "type": "Feature",
      "properties": {
        "norad_id": 45358,
        "name": "COSMOS 2545 (760)",
        "group": "glo-ops",
        "lat": -37.97074507158673,
        "lon": -63.25778601254684,
        "alt_km": 19123.219285765244,
        "timestamp": "2025-12-21T18:54:58.757819+00:00",
        "meta_object_name": "COSMOS 2545 (760)",
        "meta_object_id": "2020-018A",
        "meta_epoch": "2025-12-20T21:44:12.708096",
        "meta_mean_motion": 2.13102664,
        "meta_eccentricity": 0.00114269,
        "meta_inclination": 64.4648,
        "meta_ra_of_asc_node": 318.6832,
        "meta_arg_of_pericenter": 250.0027,
        "meta_mean_anomaly": 109.8672,
        "meta_ephemeris_type": 0,
        "meta_classification_type": "U",
        "meta_norad_cat_id": 45358,
        "meta_element_set_no": 999,
        "meta_rev_at_epoch": 4486,
        "meta_bstar": 0,
        "meta_mean_motion_dot": -5e-07,
        "meta_mean_motion_ddot": 0,
        "tle_line1": "1 45358U 20018A   25354.90570264 -.00000050  00000+0  00000+0 0  9992",
        "tle_line2": "2 45358  64.4648 318.6832 0011426 250.0027 109.8672  2.13102664 44860"
      },
      "geometry": {
        "type": "Point",
        "coordinates": [
          -63.25778601254684,
          -37.97074507158673
        ]
      }
    }
  ]
}